NORAD_CAT_ID,OBJECT_NAME,OBJECT_TYPE,EPOCH,MEAN_MOTION,ECCENTRICITY,INCLINATION,RA_OF_ASC_NODE,ARG_OF_PERICENTER,MEAN_ANOMALY,BSTAR,MEAN_MOTION_DOT,MEAN_MOTION_DDOT,TLE_LINE0,TLE_LINE1,TLE_LINE2,SEMIMAJOR_AXIS,PERIOD,APOGEE,PERIGEE,DECAYED
52462.0,STARLINK-3903,PAYLOAD,2023-01-15 19:13:17,15.08828343,0.000143,53.216,176.6794,99.7802,260.3352,-1.3624e-05,-5.05e-06,0.0,0 STARLINK-3903,1 52462U 22049M   23015.80089741 -.00000505  00000-0 -13624-4 0  9996,2 52462  53.2160 176.6794 0001430  99.7802 260.3352 15.08828343 38803,6917.916,95.438,540.77,538.7919999999999,0.0
52462.0,STARLINK-3903,PAYLOAD,2023-01-16 03:10:12,15.08837797,0.0001349,53.2174,175.1938,87.4507,272.6639,9.1229e-05,1.164e-05,0.0,0 STARLINK-3903,1 52462U 22049M   23016.13209151  .00001164  00000-0  91229-4 0  9999,2 52462  53.2174 175.1938 0001349  87.4507 272.6639 15.08837797 39018,6917.887,95.438,540.685,538.819,0.0
52462.0,STARLINK-3903,PAYLOAD,2023-01-16 09:31:44,15.08842679,0.0001158,53.2156,174.0037,82.772,277.3404,0.00015387,2.162e-05,0.0,0 STARLINK-3903,1 52462U 22049M   23016.39704820  .00002162  00000-0  15387-3 0  9999,2 52462  53.2156 174.0037 0001158  82.7720 277.3404 15.08842679 38891,6917.871999999999,95.437,540.538,538.936,0.0
52462.0,STARLINK-3903,PAYLOAD,2023-01-16 17:28:40,15.08856888,0.0001189999999999,53.2156,172.5178,84.5687,275.5441,0.00050571,7.773e-05,0.0,0 STARLINK-3903,1 52462U 22049M   23016.72824413  .00007773  00000-0  50571-3 0  9994,2 52462  53.2156 172.5178 0001190  84.5687 275.5441 15.08856888 39101,6917.829000000001,95.436,540.5169999999999,538.871,0.0
52462.0,STARLINK-3903,PAYLOAD,2023-01-17 09:22:32,15.08841801,0.0001087,53.2155,169.5449,85.4043,274.7073,0.00023866,3.513e-05,0.0,0 STARLINK-3903,1 52462U 22049M   23017.39065124  .00003513  00000-0  23866-3 0  9999,2 52462  53.2155 169.5449 0001087  85.4043 274.7073 15.08841801 39200,6917.875,95.437,540.492,538.988,0.0
52462.0,STARLINK-3903,PAYLOAD,2023-01-18 13:59:28,15.08851778,0.0001415,53.2163,164.1919,103.404,256.711,0.00018074,2.591e-05,0.0,0 STARLINK-3903,1 52462U 22049M   23018.58296353  .00002591  00000-0  18074-3 0  9991,2 52462  53.2163 164.1919 0001415 103.4040 256.7110 15.08851778 39223,6917.844,95.437,540.688,538.731,0.0
52462.0,STARLINK-3903,PAYLOAD,2023-01-18 17:10:14,15.08858923,0.0001269,53.2154,163.5963,86.8654,273.2483,0.00033544,5.057e-05,0.0,0 STARLINK-3903,1 52462U 22049M   23018.71544145  .00005057  00000-0  33544-3 0  9990,2 52462  53.2154 163.5963 0001269  86.8654 273.2483 15.08858923 39245,6917.823,95.436,540.565,538.81,0.0
52462.0,STARLINK-3903,PAYLOAD,2023-01-19 02:42:33,15.08844428,0.0001164,53.2138,161.8124,85.4618,274.6507,0.00015347,2.156e-05,0.0,0 STARLINK-3903,1 52462U 22049M   23019.11288596  .00002156  00000-0  15347-3 0  9998,2 52462  53.2138 161.8124 0001164  85.4618 274.6507 15.08844428 39467,6917.866999999999,95.437,540.5369999999999,538.927,0.0
52462.0,STARLINK-3903,PAYLOAD,2023-01-19 09:04:06,15.08842067,0.0001085999999999,53.211000000000006,160.6222,53.5972,306.512,8.6341e-05,1.087e-05,0.0,0 STARLINK-3903,1 52462U 22049M   23019.37784891  .00001087  00000-0  86341-4 0  9990,2 52462  53.2110 160.6222 0001086  53.5972 306.5120 15.08842067 39345,6917.874,95.437,540.49,538.988,0.0
52462.0,STARLINK-3903,PAYLOAD,2023-01-19 13:50:15,15.08837106,0.0001378,53.2154,159.7309,99.1903,260.9245,8.3335e-05,1.039e-05,0.0,0 STARLINK-3903,1 52462U 22049M   23019.57657069  .00001039  00000-0  83335-4 0  9995,2 52462  53.2154 159.7309 0001378  99.1903 260.9245 15.08837106 39532,6917.889,95.438,540.7080000000001,538.8009999999999,0.0
52462.0,STARLINK-3903,PAYLOAD,2023-01-20 02:33:20,15.08849569,0.000128,53.2154,157.3519,94.7358,265.3781,0.0003216,4.835e-05,0.0,0 STARLINK-3903,1 52462U 22049M   23020.10648729  .00004835  00000-0  32160-3 0  9995,2 52462  53.2154 157.3519 0001280  94.7358 265.3781 15.08849569 39615,6917.851,95.437,540.602,538.831,0.0
52462.0,STARLINK-3903,PAYLOAD,2023-01-21 08:45:40,15.08843236,0.0001257,53.2162,151.7037,88.0829,272.0307,0.00032419,4.876e-05,0.0,0 STARLINK-3903,1 52462U 22049M   23021.36504950  .00004876  00000-0  32419-3 0  9993,2 52462  53.2162 151.7037 0001257  88.0829 272.0307 15.08843236 39805,6917.87,95.437,540.605,538.866,0.0
52462.0,STARLINK-3903,PAYLOAD,2023-01-22 14:57:59,15.08855374,9.5e-05,53.2172,146.0515,77.6252,282.4847,0.00090591,0.00014165,0.0,0 STARLINK-3903,1 52462U 22049M   23022.62361070  .00014165  00000-0  90591-3 0  9994,2 52462  53.2172 146.0515 0000950  77.6252 282.4847 15.08855374 39997,6917.8330000000005,95.437,540.356,539.0409999999999,0.0
52462.0,STARLINK-3903,PAYLOAD,2023-01-23 00:30:18,15.08843026,0.0001107999999999,53.2174,144.269,85.7737,274.3381,0.00036833,5.579e-05,0.0,0 STARLINK-3903,1 52462U 22049M   23023.02105040  .00005579  00000-0  36833-3 0  9990,2 52462  53.2174 144.2690 0001108  85.7737 274.3381 15.08843026 40050,6917.871,95.437,540.503,538.97,0.0
52462.0,STARLINK-3903,PAYLOAD,2023-01-24 13:04:10,15.08846829,0.0001041,53.2175,137.4287,86.48100000000001,273.6301,0.00038285,5.812e-05,0.0,0 STARLINK-3903,1 52462U 22049M   23024.54456958  .00005812  00000-0  38285-3 0  9998,2 52462  53.2175 137.4287 0001041  86.4810 273.6301 15.08846829 40286,6917.86,95.437,540.445,539.004,0.0
52462.0,STARLINK-3903,PAYLOAD,2023-01-25 06:33:25,15.08840287,0.0001032999999999,53.2162,134.1621,82.0727,278.0382,-0.00068424,-0.00011161,0.0,0 STARLINK-3903,1 52462U 22049M   23025.27321361 -.00011161  00000-0 -68424-3 0  9992,2 52462  53.2162 134.1621 0001033  82.0727 278.0382 15.08840287 40390,6917.88,95.438,540.4590000000001,539.03,0.0
52462.0,STARLINK-3903,PAYLOAD,2023-01-25 12:54:57,15.08895168,9.03e-05,53.2148,132.969,131.6287,228.4783,0.0026414,0.00042065,0.0,0 STARLINK-3903,1 52462U 22049M   23025.53816264  .00042065  00000-0  26414-2 0  9999,2 52462  53.2148 132.9690 0000903 131.6287 228.4783 15.08895168 40272,6917.712,95.434,540.201,538.952,0.0
52462.0,STARLINK-3903,PAYLOAD,2023-01-25 14:30:20,15.08902609,6.82e-05,53.2149,132.6717,104.0568,256.05,0.0028039,0.00044696,0.0,0 STARLINK-3903,1 52462U 22049M   23025.60440118  .00044696  00000-0  28039-2 0  9995,2 52462  53.2149 132.6717 0000682 104.0568 256.0500 15.08902609 40442,6917.689,95.434,540.026,539.082,0.0
52462.0,STARLINK-3903,PAYLOAD,2023-01-26 07:59:35,15.08836498,0.0001024,53.2154,129.4013,105.1356,254.9749,0.00023069,3.385e-05,0.0,0 STARLINK-3903,1 52462U 22049M   23026.33304699  .00003385  00000-0  23069-3 0  9998,2 52462  53.2154 129.4013 0001024 105.1356 254.9749 15.08836498 40555,6917.891,95.438,540.464,539.048,0.0
52462.0,STARLINK-3903,PAYLOAD,2023-01-26 14:21:07,15.08845709,0.0001058,53.2157,128.2119,88.3544,271.7569,0.00064583,0.00010007,0.0,0 STARLINK-3903,1 52462U 22049M   23026.59800769  .00010007  00000-0  64583-3 0  9990,2 52462  53.2157 128.2119 0001058  88.3544 271.7569 15.08845709 40439,6917.863,95.437,540.46,538.996,0.0
52462.0,STARLINK-3903,PAYLOAD,2023-01-27 06:14:59,15.08822112,0.0001248,53.2158,125.2404,75.2962,284.8169,0.0009547,0.00014931,0.0,0 STARLINK-3903,1 52462U 22049M   23027.26041569  .00014931  00000-0  95470-3 0  9999,2 52462  53.2158 125.2404 0001248  75.2962 284.8169 15.08822112 40696,6917.935,95.439,540.663,538.937,0.0
52462.0,STARLINK-3903,PAYLOAD,2023-01-27 12:36:32,15.08829733,0.0001641,53.2165,124.051,80.8593,279.2585,0.00056182,8.662e-05,0.0,0 STARLINK-3903,1 52462U 22049M   23027.52537608  .00008662  00000-0  56182-3 0  9993,2 52462  53.2165 124.0510 0001641  80.8593 279.2585 15.08829733 40571,6917.911999999999,95.438,540.9119999999999,538.6419999999999,0.0
52462.0,STARLINK-3903,PAYLOAD,2023-01-28 12:27:19,15.08837926,0.0001401,53.2167,119.5906,74.77,285.3447,0.00017396,2.482e-05,0.0,0 STARLINK-3903,1 52462U 22049M   23028.51897941  .00002482  00000-0  17396-3 0  9990,2 52462  53.2167 119.5906 0001401  74.7700 285.3447 15.08837926 40889,6917.887,95.438,540.721,538.783,0.0
52462.0,STARLINK-3903,PAYLOAD,2023-01-28 15:38:05,15.08843823,0.0001442,53.2156,118.9927,101.9817,258.1337,0.00026326,3.905e-05,0.0,0 STARLINK-3903,1 52462U 22049M   23028.65145599  .00003905  00000-0  26326-3 0  9994,2 52462  53.2156 118.9927 0001442 101.9817 258.1337 15.08843823 40744,6917.869,95.437,540.731,538.736,0.0
52462.0,STARLINK-3903,PAYLOAD,2023-01-29 13:53:30,15.08839865,0.0001385,53.2162,114.83,97.3838,262.7312,0.00015424,2.168e-05,0.0,0 STARLINK-3903,1 52462U 22049M   23029.57882112  .00002168  00000-0  15424-3 0  9992,2 52462  53.2162 114.8300 0001385  97.3838 262.7312 15.08839865 41047,6917.881,95.438,540.704,538.788,0.0
52462.0,STARLINK-3903,PAYLOAD,2023-01-30 12:08:53,15.08847075,0.0001325,53.2164,110.6669,93.8957,266.2187,0.00027119,4.032e-05,0.0,0 STARLINK-3903,1 52462U 22049M   23030.50618049  .00004032  00000-0  27119-3 0  9999,2 52462  53.2164 110.6669 0001325  93.8957 266.2187 15.08847075 41027,6917.859,95.437,540.64,538.807,0.0
52462.0,STARLINK-3903,PAYLOAD,2023-01-30 21:41:12,15.08840871,0.0001338,53.2164,108.8825,92.3753,267.7392,0.00013997,1.94e-05,0.0,0 STARLINK-3903,1 52462U 22049M   23030.90362257  .00001940  00000-0  13997-3 0  9994,2 52462  53.2164 108.8825 0001338  92.3753 267.7392 15.08840871 41247,6917.878,95.437,540.668,538.817,0.0
52462.0,STARLINK-3903,PAYLOAD,2023-01-31 13:35:04,15.08847084,0.0001335,53.2165,105.9093,96.1273,263.9871,0.00021847,3.191e-05,0.0,0 STARLINK-3903,1 52462U 22049M   23031.56602013  .00003191  00000-0  21847-3 0  9997,2 52462  53.2165 105.9093 0001335  96.1273 263.9871 15.08847084 41185,6917.859,95.437,540.647,538.8,0.0
52462.0,STARLINK-3903,PAYLOAD,2023-01-31 21:31:59,15.08842047,0.0001333,53.2163,104.4226,98.6606,261.4537,8.3357e-05,1.039e-05,0.0,0 STARLINK-3903,1 52462U 22049M   23031.89722128  .00001039  00000-0  83357-4 0  9997,2 52462  53.2163 104.4226 0001333  98.6606 261.4537 15.08842047 41232,6917.874,95.437,540.661,538.817,0.0
